0 DELTA 1 DEB
1 07038U 73086AE  13280.78300186  .00000162  00000-0  18667-2 0  2306
2 07038 102.1240 216.6393 0125792 195.6528 192.2795 12.22931516779811
0 DELTA 1 DEB
1 07038U 73086AE  13286.75474529  .00000111  00000-0  13979-2 0  2329
2 07038 102.1253 222.3973 0125790 184.7970 203.3815 12.22934090780540
0 DELTA 1 DEB
1 07038U 73086AE  13289.05387885  .00000334  00000-0  34193-2 0  2332
2 07038 102.1259 224.6143 0125822 180.6373 245.5243 12.22937126780825
0 DELTA 1 DEB
1 07038U 73086AE  13291.43755986  .00000287  00000-0  29992-2 0  2347
2 07038 102.1262 226.9127 0125854 176.3061 299.9181 12.22938195781111
0 DELTA 1 DEB
1 07038U 73086AE  13293.78978983  .00000365  00000-0  36992-2 0  2357
2 07038 102.1262 229.1810 0125894 172.0245 215.8645 12.22938841781408
